NORAD_CAT_ID,OBJECT_NAME,OBJECT_TYPE,EPOCH,MEAN_MOTION,ECCENTRICITY,INCLINATION,RA_OF_ASC_NODE,ARG_OF_PERICENTER,MEAN_ANOMALY,BSTAR,MEAN_MOTION_DOT,MEAN_MOTION_DDOT,TLE_LINE0,TLE_LINE1,TLE_LINE2,SEMIMAJOR_AXIS,PERIOD,APOGEE,PERIGEE,DECAYED
55676.0,STARLINK-5300,PAYLOAD,2023-10-20 06:00:02,15.40240521,0.0003472,69.9991,183.6779,266.4483,101.2736,-0.025341,-0.00937201,0.0,0 STARLINK-5300,1 55676U 23021BA  23293.25002315 -.00937201  00000-0 -25341-1 0  9994,2 55676  69.9991 183.6779 0003472 266.4483 101.2736 15.40240521 38896,6823.536,93.492,447.77,443.032,0.0
55676.0,STARLINK-5300,PAYLOAD,2023-10-20 14:00:01,15.39543092,0.0003461,69.9993,182.7821,262.1011,152.8984,-0.023672,-0.00861631,0.0,0 STARLINK-5300,1 55676U 23021BA  23293.58334491 -.00861631  00000-0 -23672-1 0  9991,2 55676  69.9993 182.7821 0003461 262.1011 152.8984 15.39543092  5993,6825.596,93.534,449.824,445.099,0.0
55676.0,STARLINK-5300,PAYLOAD,2023-10-20 22:00:00,15.3893236,0.0003385,69.9996,181.8872,267.1626,194.3751,-0.026387,-0.00934841,0.0,0 STARLINK-5300,1 55676U 23021BA  23293.91667824 -.00934841  00000-0 -26387-1 0  9997,2 55676  69.9996 181.8872 0003385 267.1626 194.3751 15.38932360  6043,6827.402,93.571,451.578,446.956,0.0
55676.0,STARLINK-5300,PAYLOAD,2023-10-21 14:00:01,15.37589546,0.0003298,69.9993,180.0997,262.0089,290.2837,-0.025328,-0.0086449,0.0,0 STARLINK-5300,1 55676U 23021BA  23294.58334491 -.00864490  00000-0 -25328-1 0  9998,2 55676  69.9993 180.0997 0003298 262.0089 290.2837 15.37589546 39094,6831.377,93.653,455.495,450.989,0.0
55676.0,STARLINK-5300,PAYLOAD,2023-10-22 00:00:00,15.36797154,0.0003398,69.9997,178.9845,267.0934,70.3258,-0.027426,-0.00908547,0.0,0 STARLINK-5300,1 55676U 23021BA  23295.00001157 -.00908547  00000-0 -27426-1 0  9999,2 55676  69.9997 178.9845 0003398 267.0934  70.3258 15.36797154  5992,6833.725,93.701,457.912,453.268,0.0
55676.0,STARLINK-5300,PAYLOAD,2023-10-22 06:00:00,15.36329313,0.0003292,69.9994,178.3159,265.8945,14.0069,-0.029041,-0.00944346,0.0,0 STARLINK-5300,1 55676U 23021BA  23295.25001157 -.00944346  00000-0 -29041-1 0  9998,2 55676  69.9994 178.3159 0003292 265.8945  14.0069 15.36329313 39194,6835.112,93.73,459.227,454.727,0.0
55676.0,STARLINK-5300,PAYLOAD,2023-10-22 14:00:01,15.35629746,0.0003422,69.9996,177.4254,260.5676,61.9812,-0.026815,-0.00859478,0.0,0 STARLINK-5300,1 55676U 23021BA  23295.58334491 -.00859478  00000-0 -26815-1 0  9991,2 55676  69.9996 177.4254 0003422 260.5676  61.9812 15.35629746  6058,6837.188,93.773,461.392,456.713,0.0
55676.0,STARLINK-5300,PAYLOAD,2023-10-22 22:00:00,15.3501242,0.0003495,69.9997,176.5357,265.8428,98.5528,-0.029559,-0.00923247,0.0,0 STARLINK-5300,1 55676U 23021BA  23295.91667824 -.00923247  00000-0 -29559-1 0  9991,2 55676  69.9997 176.5357 0003495 265.8428  98.5528 15.35012420 39305,6839.021,93.81,463.276,458.495,0.0
55676.0,STARLINK-5300,PAYLOAD,2023-10-23 00:00:02,15.34837146,0.0003318,69.9998,176.3134,268.7085,196.0961,-0.029012,-0.0090281,0.0,0 STARLINK-5300,1 55676U 23021BA  23296.00002315 -.00902810  00000-0 -29012-1 0  9997,2 55676  69.9998 176.3134 0003318 268.7085 196.0961 15.34837146  6052,6839.541,93.821,463.676,459.137,0.0
55676.0,STARLINK-5300,PAYLOAD,2023-10-23 22:00:00,15.33051908,0.0003317,69.9998,173.8724,267.4576,217.807,-0.031311,-0.00919142,0.0,0 STARLINK-5300,1 55676U 23021BA  23296.91667824 -.00919142  00000-0 -31311-1 0  9990,2 55676  69.9998 173.8724 0003317 267.4576 217.8070 15.33051908  6044,6844.85,93.93,468.985,464.445,0.0
55676.0,STARLINK-5300,PAYLOAD,2023-10-24 06:00:02,15.32415764,0.0003192,69.9997,172.9861,268.0709,255.9751,-0.032891,-0.00944035,0.0,0 STARLINK-5300,1 55676U 23021BA  23297.25002315 -.00944035  00000-0 -32891-1 0  9999,2 55676  69.9997 172.9861 0003192 268.0709 255.9751 15.32415764 39500,6846.744,93.969,470.795,466.424,0.0
55676.0,STARLINK-5300,PAYLOAD,2023-10-24 14:00:01,15.31723295,0.0003246,70.0,172.1011,261.0027,300.9299,-0.030725,-0.00869141,0.0,0 STARLINK-5300,1 55676U 23021BA  23297.58334491 -.00869141  00000-0 -30725-1 0  9996,2 55676  70.0000 172.1011 0003246 261.0027 300.9299 15.31723295  6066,6848.808,94.012,472.896,468.449,0.0
55676.0,STARLINK-5300,PAYLOAD,2023-10-24 16:00:01,15.31586106,0.0003416,70.0002,171.8798,260.7442,40.6049,-0.032219,-0.00904457,0.0,0 STARLINK-5300,1 55676U 23021BA  23297.66668981 -.00904457  00000-0 -32219-1 0  9999,2 55676  70.0002 171.8798 0003416 260.7442  40.6049 15.31586106  6072,6849.217,94.02,473.421,468.742,0.0
55676.0,STARLINK-5300,PAYLOAD,2023-10-25 16:00:03,15.29631671,0.0003376,70.0002,169.2299,263.4486,146.509,-0.034396,-0.00908223,0.0,0 STARLINK-5300,1 55676U 23021BA  23298.66670139 -.00908223  00000-0 -34396-1 0  9991,2 55676  70.0002 169.2299 0003376 263.4486 146.5090 15.29631671 39727,6855.05,94.14,479.229,474.6,0.0
55676.0,STARLINK-5300,PAYLOAD,2023-10-26 14:00:01,15.27812203,0.0003356,69.9998,166.8076,262.4324,150.7228,-0.034758,-0.00870944,0.0,0 STARLINK-5300,1 55676U 23021BA  23299.58334491 -.00870944  00000-0 -34758-1 0  9991,2 55676  69.9998 166.8076 0003356 262.4324 150.7228 15.27812203 39867,6860.491,94.252,484.658,480.054,0.0
55676.0,STARLINK-5300,PAYLOAD,2023-10-26 16:00:00,15.2767622,0.0003206,70.0,166.5878,262.2767,249.0583,-0.036601,-0.00909838,0.0,0 STARLINK-5300,1 55676U 23021BA  23299.66667824 -.00909838  00000-0 -36601-1 0  9993,2 55676  70.0000 166.5878 0003206 262.2767 249.0583 15.27676220  6052,6860.898,94.261,484.963,480.563,0.0
55676.0,STARLINK-5300,PAYLOAD,2023-10-30 02:49:34,15.22550586,0.000254,69.9965,157.5329,263.504,96.5842,-0.011223,-0.00252492,0.0,0 STARLINK-5300,1 55676U 23021BA  23303.11776280 -.00252492  00000-0 -11223-1 0  9996,2 55676  69.9965 157.5329 0002540 263.5040  96.5842 15.22550586 40409,6876.287,94.578,499.899,496.406,0.0
55676.0,STARLINK-5300,PAYLOAD,2023-10-30 22:00:00,15.19341832,0.0003275,69.9981,155.4457,270.0664,144.1346,-0.046176,-0.00907488,0.0,0 STARLINK-5300,1 55676U 23021BA  23303.91667824 -.00907488  00000-0 -46176-1 0  9994,2 55676  69.9981 155.4457 0003275 270.0664 144.1346 15.19341832 40527,6885.966,94.778,510.086,505.575,0.0
55676.0,STARLINK-5300,PAYLOAD,2023-10-31 14:00:01,15.18044494,0.000322,69.9982,153.711,264.9021,193.0987,-0.047669,-0.00902619,0.0,0 STARLINK-5300,1 55676U 23021BA  23304.58334491 -.00902619  00000-0 -47669-1 0  9998,2 55676  69.9982 153.7110 0003220 264.9021 193.0987 15.18044494 40622,6889.888,94.859,513.972,509.535,0.0
55676.0,STARLINK-5300,PAYLOAD,2023-10-31 22:00:01,15.17380543,0.000317,69.9982,152.8448,270.5872,208.2216,-0.048429,-0.00899831,0.0,0 STARLINK-5300,1 55676U 23021BA  23304.91668981 -.00899831  00000-0 -48429-1 0  9995,2 55676  69.9982 152.8448 0003170 270.5872 208.2216 15.17380543  6136,6891.898,94.9,515.948,511.578,0.0
55676.0,STARLINK-5300,PAYLOAD,2023-11-01 06:00:00,15.16757017,0.0003068,69.9979,151.9796,268.4004,230.2856,-0.052724,-0.00957564,0.0,0 STARLINK-5300,1 55676U 23021BA  23305.25001157 -.00957564  00000-0 -52724-1 0  9990,2 55676  69.9979 151.9796 0003068 268.4004 230.2856 15.16757017 40728,6893.787,94.939,517.767,513.537,0.0
55676.0,STARLINK-5300,PAYLOAD,2023-11-01 14:00:01,15.16091491,0.0003118,69.9983,151.1152,263.8285,254.0831,-0.050805,-0.00909024,0.0,0 STARLINK-5300,1 55676U 23021BA  23305.58335648 -.00909024  00000-0 -50805-1 0  9997,2 55676  69.9983 151.1152 0003118 263.8285 254.0831 15.16091491  5991,6895.804,94.981,519.819,515.519,0.0
55676.0,STARLINK-5300,PAYLOAD,2023-11-01 22:00:00,15.15420433,0.0003129,69.9982,150.2517,269.7913,266.4566,-0.050859,-0.0089389,0.0,0 STARLINK-5300,1 55676U 23021BA  23305.91667824 -.00893890  00000-0 -50859-1 0  9990,2 55676  69.9982 150.2517 0003129 269.7913 266.4566 15.15420433 40824,6897.839,95.023,521.863,517.546,0.0
55676.0,STARLINK-5300,PAYLOAD,2023-11-02 14:00:01,15.1413853,0.0003143,69.9985,148.5273,262.5886,308.0667,-0.054059,-0.0091462,0.0,0 STARLINK-5300,1 55676U 23021BA  23306.58334491 -.00914620  00000-0 -54059-1 0  9996,2 55676  69.9985 148.5273 0003143 262.5886 308.0667 15.14138530 40921,6901.732,95.104,525.766,521.428,0.0
55676.0,STARLINK-5300,PAYLOAD,2023-11-02 22:00:01,15.13461354,0.0003142,69.9984,147.6662,268.9582,317.8147,-0.053466,-0.00889375,0.0,0 STARLINK-5300,1 55676U 23021BA  23306.91668981 -.00889375  00000-0 -53466-1 0  9996,2 55676  69.9984 147.6662 0003142 268.9582 317.8147 15.13461354  5962,6903.791,95.146,527.825,523.487,0.0
55676.0,STARLINK-5300,PAYLOAD,2023-11-03 06:00:00,15.12838896,0.0003129,69.9983,146.8062,265.8506,336.1073,-0.058557,-0.00952087,0.0,0 STARLINK-5300,1 55676U 23021BA  23307.25001157 -.00952087  00000-0 -58557-1 0  9997,2 55676  69.9983 146.8062 0003129 265.8506 336.1073 15.12838896 41031,6905.684,95.185,529.71,525.389,0.0
55676.0,STARLINK-5300,PAYLOAD,2023-11-03 14:00:01,15.12184057,0.0003198,69.9987,145.9471,262.12,354.3025,-0.057368,-0.0091844,0.0,0 STARLINK-5300,1 55676U 23021BA  23307.58334491 -.00918440  00000-0 -57368-1 0  9997,2 55676  69.9987 145.9471 0003198 262.1200 354.3025 15.12184057  5858,6907.678,95.227,531.752,527.334,0.0
55676.0,STARLINK-5300,PAYLOAD,2023-11-03 22:00:00,15.11503683,0.0003187,69.9987,145.0887,268.636,1.4949,-0.056324,-0.00887125,0.0,0 STARLINK-5300,1 55676U 23021BA  23307.91667824 -.00887125  00000-0 -56324-1 0  9999,2 55676  69.9987 145.0887 0003187 268.6360   1.4949 15.11503683 41131,6909.751,95.269,533.818,529.413,0.0
55676.0,STARLINK-5300,PAYLOAD,2023-11-04 14:00:01,15.10228064,0.0003241,69.9988,143.3747,262.0872,33.0617,-0.060742,-0.00920795,0.0,0 STARLINK-5300,1 55676U 23021BA  23308.58334491 -.00920795  00000-0 -60742-1 0  9994,2 55676  69.9988 143.3747 0003241 262.0872  33.0617 15.10228064 41235,6913.641,95.35,537.747,533.265,0.0
55676.0,STARLINK-5300,PAYLOAD,2023-11-05 00:00:00,15.09389559,0.0003271,69.9987,142.3051,271.3713,127.8514,-0.060071,-0.00891987,0.0,0 STARLINK-5300,1 55676U 23021BA  23309.00001157 -.00891987  00000-0 -60071-1 0  9997,2 55676  69.9987 142.3051 0003271 271.3713 127.8514 15.09389559  6011,6916.201,95.403,540.328,535.804,0.0
